     2.10           GLONASS NAV DATA                        RINEX VERSION / TYPE
SPIDER V4,0,0,3554                      2015 03 18 00:44    PGM / RUN BY / DATE 
  2015     2    25   -1.071020960808e-008                    CORR TO SYSTEM TIME 
    16                                                      LEAP SECONDS        
                                                            END OF HEADER       
 1 15 02 25 13 45  0.0-1.559332013130D-04 0.000000000000D+00 4.860000000000D+04
    2.238841552734D+04 1.091903686523D+00 9.313225746155D-10 0.000000000000D+00
    8.567272949219D+03 5.064096450806D-01 2.793967723846D-09 1.000000000000D+00
    8.739566406250D+03-3.290134429932D+00 0.000000000000D+00 0.000000000000D+00
 8 15 02 25 13 45  0.0-2.634339034557D-05-0.000000000000D+00 4.860000000000D+04
    1.803913232422D+04-9.354877471924D-01 9.313225746155D-10 0.000000000000D+00
    1.583296728516D+04-7.450990676880D-01 9.313225746155D-10 6.000000000000D+00
   -8.618796386719D+03-3.307631492615D+00 1.862645149231D-09 0.000000000000D+00
13 15 02 25 13 45  0.0-4.732189700007D-04-9.094947017729D-13 4.860000000000D+04
    2.124318115234D+04 3.572883605957D-01-0.000000000000D+00 0.000000000000D+00
   -1.358997412109D+04-4.391021728516D-01-0.000000000000D+00-2.000000000000D+00
   -3.840242675781D+03 3.546312332153D+00-0.000000000000D+00 0.000000000000D+00
 3 15 02 25 13 45  0.0 3.598257899284D-05 9.094947017729D-13 5.016000000000D+04
   -3.330844238281D+03 2.434669494629D+00-0.000000000000D+00 0.000000000000D+00
   -1.386991455078D+04 1.561485290527D+00 0.000000000000D+00 5.000000000000D+00
    2.118364208984D+04 1.404930114746D+00-2.793967723846D-09 0.000000000000D+00
12 15 02 25 14 15  0.0-4.237517714500D-06 9.094947017729D-13 5.040000000000D+04
    1.770365039063D+04-2.104539871216D+00 9.313225746155D-10 0.000000000000D+00
   -2.263113769531D+03 1.359902381897D+00 1.862645149231D-09-1.000000000000D+00
    1.826596630859D+04 2.190980911255D+00-1.862645149231D-09 0.000000000000D+00
 3 15 02 25 14 15  0.0 3.598537296057D-05 9.094947017729D-13 5.040000000000D+04
    1.456647460938D+03 2.845763206482D+00-0.000000000000D+00 0.000000000000D+00
   -1.128055957031D+04 1.283058166504D+00 9.313225746155D-10 5.000000000000D+00
    2.286404296875D+04 4.500827789307D-01-2.793967723846D-09 0.000000000000D+00
11 15 02 25 14 15  0.0 1.710839569569D-06 0.000000000000D+00 5.040000000000D+04
    3.042710937500D+03-2.518282890320D+00 9.313225746155D-10 0.000000000000D+00
    1.074580517578D+04 1.881705284119D+00 1.862645149231D-09 0.000000000000D+00
    2.293933300781D+04-5.390777587891D-01-9.313225746155D-10 0.000000000000D+00
 1 15 02 25 14 15  0.0-1.559332013130D-04 0.000000000000D+00 5.040000000000D+04
    2.373688623047D+04 3.771429061890D-01 9.313225746155D-10 0.000000000000D+00
    9.007653320313D+03 1.181125640869D-02 1.862645149231D-09 1.000000000000D+00
    2.556167968750D+03-3.535722732544D+00 9.313225746155D-10 0.000000000000D+00
 2 15 02 25 14 15  0.0 1.203026622534D-04 1.818989403546D-12 5.040000000000D+04
    1.782131201172D+04 2.317840576172D+00 9.313225746155D-10 0.000000000000D+00
   -1.575553710938D+03 9.058799743652D-01 1.862645149231D-09-4.000000000000D+00
    1.819661328125D+04-2.197928428650D+00-9.313225746155D-10 0.000000000000D+00
13 15 02 25 14 15  0.0-4.732208326459D-04-9.094947017729D-13 5.040000000000D+04
    2.116938476563D+04-4.179964065552D-01-0.000000000000D+00 0.000000000000D+00
   -1.398339941406D+04 3.825473785400D-02 0.000000000000D+00-2.000000000000D+00
    2.609115234375D+03 3.573095321655D+00-0.000000000000D+00 0.000000000000D+00
12 15 02 25 14 45  0.0-4.235655069351D-06 9.094947017729D-13 5.220000000000D+04
    1.379001660156D+04-2.195995330811D+00 9.313225746155D-10 0.000000000000D+00
    7.356728515625D+02 1.959305763245D+00 1.862645149231D-09-1.000000000000D+00
    2.145465966797D+04 1.328681945801D+00-1.862645149231D-09 0.000000000000D+00
 3 15 02 25 14 45  0.0 3.598723560572D-05 9.094947017729D-13 5.220000000000D+04
    6.753994628906D+03 2.991679191589D+00 0.000000000000D+00 0.000000000000D+00
   -9.341882812500D+03 8.538055419922D-01 9.313225746155D-10 5.000000000000D+00
    2.278291503906D+04-5.397129058838D-01-2.793967723846D-09 0.000000000000D+00
11 15 02 25 14 45  0.0 1.712702214718D-06 9.094947017729D-13 5.220000000000D+04
   -1.074836914063D+03-2.025748252869D+00 9.313225746155D-10 0.000000000000D+00
    1.433262109375D+04 2.062042236328D+00 1.862645149231D-09 0.000000000000D+00
    2.109590722656D+04-1.495656967163D+00-9.313225746155D-10 0.000000000000D+00
 1 15 02 25 14 45  0.0-1.559322699904D-04 0.000000000000D+00 5.220000000000D+04
    2.366992236328D+04-4.638710021973D-01 9.313225746155D-10 0.000000000000D+00
    8.733414062500D+03-2.780599594116D-01 1.862645149231D-09 1.000000000000D+00
   -3.824709960938D+03-3.508147239685D+00 1.862645149231D-09 0.000000000000D+00
 2 15 02 25 14 45  0.0 1.203129068017D-04 1.818989403546D-12 5.220000000000D+04
    2.158559228516D+04 1.820662498474D+00 9.313225746155D-10 0.000000000000D+00
   -4.249858398438D+02 3.878974914551D-01 1.862645149231D-09-4.000000000000D+00
    1.358860986328D+04-2.888981819153D+00-0.000000000000D+00 0.000000000000D+00
13 15 02 25 14 45  0.0-4.732236266136D-04-9.094947017729D-13 5.220000000000D+04
    1.984383789063D+04-1.018603324890D+00 0.000000000000D+00 0.000000000000D+00
   -1.334379687500D+04 6.952199935913D-01 9.313225746155D-10-2.000000000000D+00
    8.856581542969D+03 3.323404312134D+00-9.313225746155D-10 0.000000000000D+00
12 15 02 25 15 15  0.0-4.232861101627D-06 9.094947017729D-13 5.400000000000D+04
    9.962397460938D+03-2.015041351318D+00 1.862645149231D-09 0.000000000000D+00
    4.711717773438D+03 2.428166389465D+00 1.862645149231D-09-1.000000000000D+00
    2.298600927734D+04 3.613262176514D-01-1.862645149231D-09 0.000000000000D+00
 3 15 02 25 15 15  0.0 3.598909825087D-05 9.094947017729D-13 5.400000000000D+04
    1.204530566406D+04 2.836831092834D+00 9.313225746155D-10 0.000000000000D+00
   -8.237075683594D+03 3.744115829468D-01 9.313225746155D-10 5.000000000000D+00
    2.094576171875D+04-1.488464355469D+00-1.862645149231D-09 0.000000000000D+00
13 15 02 25 15 15  0.0-4.732273519039D-04-9.094947017729D-13 5.400000000000D+04
    1.765092480469D+04-1.373137474060D+00 9.313225746155D-10 0.000000000000D+00
   -1.142976123047D+04 1.436301231384D+00 9.313225746155D-10-2.000000000000D+00
    1.441855029297D+04 2.816356658936D+00-9.313225746155D-10 0.000000000000D+00
 1 15 02 25 15 15  0.0-1.559313386679D-04 0.000000000000D+00 5.400000000000D+04
    2.205695019531D+04-1.321390151978D+00 9.313225746155D-10 0.000000000000D+00
    8.152207031250D+03-3.268194198608D-01 9.313225746155D-10 1.000000000000D+00
   -9.910159179688D+03-3.209607124329D+00 2.793967723846D-09 0.000000000000D+00
 2 15 02 25 15 15  0.0 1.203166320920D-04 9.094947017729D-13 5.400000000000D+04
    2.423700976563D+04 1.093590736389D+00 1.862645149231D-09 0.000000000000D+00
   -9.568603515625D+01 8.052825927734D-03 1.862645149231D-09-4.000000000000D+00
    7.930238769531D+03-3.357343673706D+00 0.000000000000D+00 0.000000000000D+00
22 15 02 25 15 15  0.0 1.542251557112D-04 0.000000000000D+00 5.511000000000D+04
    6.717014160156D+03-6.225395202637D-02 1.862645149231D-09 0.000000000000D+00
    2.407437841797D+04-6.700954437256D-01 9.313225746155D-10-3.000000000000D+00
    4.729571777344D+03 3.518144607544D+00 9.313225746155D-10 0.000000000000D+00
14 15 02 25 15 15  0.0 1.357356086373D-04 4.547473508865D-12 5.568000000000D+04
    1.508848193359D+04 5.033397674561D-02-0.000000000000D+00 0.000000000000D+00
   -2.042380712891D+04-4.476318359375D-01-0.000000000000D+00-7.000000000000D+00
   -2.783554687500D+03 3.575730323792D+00-0.000000000000D+00 0.000000000000D+00
12 15 02 25 15 45  0.0-4.231929779053D-06 0.000000000000D+00 5.580000000000D+04
    6.665826171875D+03-1.618634223938D+00 1.862645149231D-09 0.000000000000D+00
    9.341825195313D+03 2.672736167908D+00 1.862645149231D-09-1.000000000000D+00
    2.273701611328D+04-6.366195678711D-01-9.313225746155D-10 0.000000000000D+00
 3 15 02 25 15 45  0.0 3.599096089602D-05 9.094947017729D-13 5.580000000000D+04
    1.679112841797D+04 2.391058921814D+00 1.862645149231D-09 0.000000000000D+00
   -7.959583984375D+03-4.802417755127D-02 1.862645149231D-09 5.000000000000D+00
    1.749306396484D+04-2.323134422302D+00-9.313225746155D-10 0.000000000000D+00
13 15 02 25 15 45  0.0-4.732301458716D-04-9.094947017729D-13 5.580000000000D+04
    1.506644921875D+04-1.452751159668D+00 9.313225746155D-10 0.000000000000D+00
   -8.190980468750D+03 2.147613525391D+00 1.862645149231D-09-2.000000000000D+00
    1.886419775391D+04 2.091104507446D+00-1.862645149231D-09 0.000000000000D+00
 2 15 02 25 15 45  0.0 1.203194260597D-04 9.094947017729D-13 5.580000000000D+04
    2.543803564453D+04 2.264823913574D-01 1.862645149231D-09 0.000000000000D+00
   -2.692045898438D+02-1.618137359619D-01 9.313225746155D-10-4.000000000000D+00
    1.658252441406D+03-3.566247940063D+00 9.313225746155D-10 0.000000000000D+00
14 15 02 25 15 45  0.0 1.357439905405D-04 4.547473508865D-12 5.580000000000D+04
    1.467658447266D+04-4.728250503540D-01 0.000000000000D+00 0.000000000000D+00
   -2.057576367188D+04 3.026895523071D-01 0.000000000000D+00-7.000000000000D+00
    3.677108398438D+03 3.556347846985D+00-9.313225746155D-10 0.000000000000D+00
22 15 02 25 15 45  0.0 1.542251557112D-04 0.000000000000D+00 5.580000000000D+04
    6.184316406250D+03-5.578317642212D-01 1.862645149231D-09 0.000000000000D+00
    2.219753710938D+04-1.382681846619D+00 9.313225746155D-10-3.000000000000D+00
    1.079543164063D+04 3.177648544312D+00 0.000000000000D+00 0.000000000000D+00
